#dP2022  7 24  0  0  0.00000000      96 __u+U ITR00 FIT  IAC
## 2220      0.00000000   900.00000000 59784 0.0000000000000
+  116   C06C07C08C09C10C11C12C13C14C16C19C20C21C22C23C24C25
+        C26C27C28C29C30C32C33C34C35C36C37C38C39C40C41C42C43
+        C44C45C46E01E02E03E04E05E07E08E09E10E11E12E13E14E15
+        E18E19E21E24E25E26E27E30E31E33E34E36G01G02G03G04G05
+        G06G07G08G09G10G11G12G13G14G15G16G17G18G19G20G21G22
+        G23G24G25G26G27G28G29G30G31G32J02J03R01R02R03R04R05
+        R07R08R09R11R12R13R14R15R17R18R19R20R21R24  0  0  0
++         7  7  8  6  7  6  7  8  8  7  5  8  7  7  6  5  6
++         6  7  7  7  6  7  7  5  7  7  7  7  7  8  4  9  6
++         7  7  6  6  5  5  6  5  5  5  6  6  7  7  4  6  6
++         6  6  6  7  5  6  6  6  6  6  5  5  6  5  5  6  5
++         5  6  6  6  5  6  7  6  5  6  6  6  5  6  6  6  6
++         5  6  5  5  5  6  6  6  4  5  7  8  7  7  6  6  6
++         5  4  5  7  7  4  6  7  5  5  8  6  5  8  0  0  0
%c M  cc GPS ccc cccc cccc cccc cccc ccccc ccccc ccccc ccccc
%c cc cc ccc ccc cccc cccc cccc cccc ccccc ccccc ccccc ccccc
%f  0.0000000  0.000000000  0.00000000000  0.000000000000000
%f  0.0000000  0.000000000  0.00000000000  0.000000000000000
%i    0    0    0    0      0      0      0      0         0
%i    0    0    0    0      0      0      0      0         0
/* INFORMATION & ANALYSIS CENTER (IAC)      ULTRA-RAPID DATA
/* S/V CLOCKS ARE ALIGNED TO GNSS TIME                      
/* G:C1WC2W R:C1PC2P E:C1XC5X C:C2IC6I J:C1CC2S             
/* PCV:IGS14_2215 OL/AL:FES2004  NONE     YN ORB:CoN CLK:CoN
*  2022 07 24 10 45  0.00000000
PC06  -2760.768687  37544.387255  19234.103285    460.923184
PC07 -10076.540114  25673.948580 -31870.248327   -471.388174
PC08 -17953.092127  34666.135309  15673.567006    416.226836
PC09   1542.231986  40603.262894  12567.923342   -917.854624
PC10  -2844.957247  26644.029178 -32267.564838    115.592163
PC11  11551.529192  25248.756892   2643.163246    493.484406
PC12   -619.859391  23938.994684 -14279.380864   -569.332532
PC13 -12687.820448  34968.740586  19701.342864     32.977038
PC14  14622.320331  14754.243152  18622.006589    555.916537
PC16  -4326.489676  36080.790580  21790.292816    143.354168
PC19 -22945.384160 -10869.209803 -11586.613313   -277.686332
PC20  -6120.860848 -15981.111221 -22039.403601   -964.137605
PC21 -15636.488282  11775.905564  19912.583489    -45.692616
PC22 -27260.773917    681.867037   6003.090726   -963.109320
PC23  21010.266411  -7625.758702 -16695.004241   -950.371149
PC24  -4448.578563  23252.122045 -14759.289074   -967.671885
PC25  12855.851080   9991.180099 -22666.550906   -703.032269
PC26 -16595.403999  22411.283702    269.158466    705.097596
PC27   7390.657330 -18253.672754  19744.772252    759.098680
PC28  16722.726024    103.891414  22337.710768     93.651765
PC29 -17171.819538 -18762.631063 -11496.232509    585.948022
PC30  -6820.739266 -26257.521335   6493.430790    501.430629
PC32  15583.182624 -11871.586733 -19856.320765    -73.066121
PC33  22902.808052  10815.295829  11693.784918   -241.105772
PC34   7519.330462  26318.086501  -5499.816721   -351.800769
PC35 -17158.559809   -813.436292 -21998.981877    380.311322
PC36 -12212.810785 -10820.348053  22669.441028   -971.546064
PC37  17729.136293 -21515.687369  -1419.538922   -920.990091
PC38 -22059.108258  34984.328219   7698.589461     12.324301
PC39  -6758.968472  32347.693602  26313.677206     -0.105437
PC40 -15389.062381  19158.187919 -34303.137594     -1.089868
PC41  27352.680832   -416.628430  -5452.674864   -106.704926
PC42   4791.521521  16081.057564  22334.175735 999999.999999
PC43  16933.161669  19374.499417  10809.383038      4.719707
PC44  -6992.857072  18420.138534 -19787.401644    734.205945
PC45 -20992.887441   7973.144233  16565.143970    817.081568
PC46   3103.573757 -22694.192902  15972.792963   -448.851720
PE01 -27415.927506  11158.795549    211.103722   -521.234530
PE02  27372.774868 -11280.675460    -22.565799    313.948140
PE03  20168.113358  -3575.065946 -21363.451529   -582.250585
PE04  -3321.747920  18037.160223  23240.951313  -1078.268100
PE05  25523.023367  13317.029904  -6870.205343   -160.036704
PE07 -15966.722397 -22188.104842 -11364.025321   -690.336172
PE08   2990.319995 -18034.241572 -23280.674208   -569.105583
PE09  16035.636228  22084.476979  11442.362458   -598.576160
PE10  -1308.039998  29375.307335   3346.109617   -502.683045
PE11   5399.969349  25970.816555  13128.093969   2896.255063
PE12  -7566.748218  27920.402247  -6316.156180    -78.571276
PE13  -4982.067098 -26344.269077 -12546.883312    429.951092
PE14  -6039.865658  19779.889264 -21665.180256  -1769.904293
PE15   7565.508619 -27873.407774   6479.279947    731.295423
PE18  -9988.584797 -23679.070813  10400.645172  -1177.163051
PE19 -21607.256992   1195.430677  20204.380854  -5004.712743
PE21 -24489.867947  -1998.964448  16512.510732   -747.741782
PE24   6167.279966  15548.175760 -24428.109053   -742.232839
PE25  24331.439475   2204.075059 -16701.381006   -582.153102
PE26 -14901.290205  -8405.997553 -24160.160200  -1413.625809
PE27  -7382.700083 -14978.109386  24448.438775   -352.096367
PE30  14840.114655 -18902.517595  17283.953041   -697.818332
PE31 -13911.469182  19013.009425 -17909.295003   -500.455814
PE33 -15583.878627  12953.395421 -21580.986233   -454.425290
PE34  15517.204464 -13195.666903  21467.822505   -487.429189
PE36  14493.685447   9377.341137  24039.895534   -406.694613
PG01  13383.784387 -18518.949873  12932.302717    315.302788
PG02 -14853.912946   -688.046842 -21395.172153   -650.782888
PG03  21707.535151 -12637.445527  -8571.836247   -315.340140
PG04  12887.339874  -8443.243887 -21631.950895   -142.064261
PG05 -25649.956467   5083.478859  -5252.207001    -90.299789
PG06  -7750.760550 -18046.774986 -17784.912592    397.844048
PG07   4939.652787 -25788.711462   1649.014296    318.042692
PG08  18539.363352  -1199.510280  19070.258706    -77.522113
PG09   2037.210268 -17311.668773 -20101.226107   -315.797733
PG10   6878.334391  13494.164003  21984.294937   -503.174804
PG11 -14164.687119  -5529.705848 -21780.961792    -10.383625
PG12 -23713.557379  10015.688018  -6583.346681   -251.337456
PG13 -20281.156288  -9264.210583  14411.302719    354.537985
PG14  -4713.962018 -14684.517035  21629.787192   -111.335973
PG15 -18637.800844   3393.569180  18309.437699    -42.911144
PG16  24859.730647   1908.023157 -10061.140649   -517.075134
PG17 -11268.653600 -21949.899618  10189.016957    640.510097
PG18  -5543.162460  25864.607968   1463.531521    103.713812
PG19 -17229.657345 -20375.602172    367.825956    187.897873
PG20 -20974.271247  -2621.281493 -15937.918171    500.598952
PG21  15469.650181  -9178.074503  19931.369454    160.961080
PG22  18418.268062  19208.118076  -1117.948170    297.740806
PG23  -5158.802254  16351.965128  20241.431830    -34.264924
PG24 -14196.035548  15255.122239  15919.819453    188.508895
PG25 -13178.694336  16271.158271 -16465.862554    352.831544
PG26  18844.602584   6897.991823 -17638.376393    219.974054
PG27  22023.538078  10935.759108  10313.772224    220.924169
PG28 -13730.982025 -11350.915447  20134.280734    336.957727
PG29  -3039.620546  16843.237066 -20338.477239   -536.467310
PG30  -2398.976141 -23951.453223  11031.215640   -534.651782
PG31   9884.642421  15627.692380 -19028.183676   -186.976703
PG32  14734.417620  20907.160729   7661.854709   -184.679894
PJ02 -36302.337238  19137.015163  -5200.321270     -2.103032
PJ03 -18461.015466  28304.738657 -20520.225760     -0.248397
PR01  -2755.696795 -11988.462140 -22347.576781     11.986647
PR02 -20130.378141 -11730.553860 -10269.062586    525.034660
PR03 -24107.114601  -4208.998188   7142.199093     60.741873
PR04 -14556.509012   5206.494091  20313.717629    151.696125
PR05   2927.747537  11949.252182  22359.032574     96.748423
PR07  24005.272994   3915.704524  -7726.452358     38.319632
PR08  14497.491550  -5373.798732 -20240.157789    -66.375977
PR09   8458.222880   7547.392220 -22827.001700     67.465773
PR11  18736.492695 -17291.795458   -362.798004     32.434069
PR12   7406.969511 -17721.417662  16823.947757     19.477269
PR13  -7153.308281  -8412.552722  22985.274122    -24.946280
PR14 -18858.146931   7070.416875  15685.399301     24.772695
PR15 -18659.489240  17389.459787   -527.185112     94.535227
PR17 -11271.354647  -3742.919648 -22579.175212    546.254739
PR18  -6487.734836  13974.935313 -20335.643109     34.171616
PR19    316.642463  24014.862600  -8587.553652   -197.463393
PR20   8873.219308  20867.715526  11718.947483    -75.205285
PR21  10956.988321   2050.264674  22933.220744   -319.938166
PR24  -9849.299217 -20130.967547 -12192.115741    105.207943
EOF
